NORAD_CAT_ID,OBJECT_NAME,OBJECT_TYPE,EPOCH,MEAN_MOTION,ECCENTRICITY,INCLINATION,RA_OF_ASC_NODE,ARG_OF_PERICENTER,MEAN_ANOMALY,BSTAR,MEAN_MOTION_DOT,MEAN_MOTION_DDOT,TLE_LINE0,TLE_LINE1,TLE_LINE2,SEMIMAJOR_AXIS,PERIOD,APOGEE,PERIGEE,DECAYED
53568.0,STARLINK-4583,PAYLOAD,2023-11-15 04:17:47,15.08838063,0.0001567,53.2184,249.6379,97.8034,262.3136,-4.4375e-05,-9.94e-06,0.0,0 STARLINK-4583,1 53568U 22101AT  23319.17901951 -.00000994  00000-0 -44375-4 0  9995,2 53568  53.2184 249.6379 0001567  97.8034 262.3136 15.08838063 69495,6917.886,95.438,540.835,538.667,0.0
53568.0,STARLINK-4583,PAYLOAD,2023-11-16 02:33:11,15.08844933,0.0001589,53.2185,245.4764,99.3262,260.791,0.00012962,1.776e-05,0.0,0 STARLINK-4583,1 53568U 22101AT  23320.10638066  .00001776  00000-0  12962-3 0  9997,2 53568  53.2185 245.4764 0001589  99.3262 260.7910 15.08844933 68946,6917.865,95.437,540.83,538.631,0.0
53568.0,STARLINK-4583,PAYLOAD,2023-11-16 04:08:34,15.08844392,0.0001627,53.2185,245.1789,99.4274,260.6902,0.00019101,2.754e-05,0.0,0 STARLINK-4583,1 53568U 22101AT  23320.17262085  .00002754  00000-0  19101-3 0  9997,2 53568  53.2185 245.1789 0001627  99.4274 260.6902 15.08844392 69644,6917.867,95.437,540.858,538.606,0.0
53568.0,STARLINK-4583,PAYLOAD,2023-11-17 03:59:21,15.08843699,0.0001693,53.2187,240.7131,86.2847,273.8338,0.00026674,3.96e-05,0.0,0 STARLINK-4583,1 53568U 22101AT  23321.16622239  .00003960  00000-0  26674-3 0  9991,2 53568  53.2187 240.7131 0001693  86.2847 273.8338 15.08843699 69100,6917.869,95.437,540.905,538.563,0.0
53568.0,STARLINK-4583,PAYLOAD,2023-11-17 11:56:17,15.08836994,0.0001821,53.2186,239.2274,85.097,275.023,1.6178e-05,-3.1e-07,0.0,0 STARLINK-4583,1 53568U 22101AT  23321.49742532 -.00000031  00000-0  16178-4 0  9992,2 53568  53.2186 239.2274 0001821  85.0970 275.0230 15.08836994 69843,6917.89,95.438,541.014,538.495,0.0
53568.0,STARLINK-4583,PAYLOAD,2023-11-18 11:47:04,15.08845348,0.0001313,53.2166,234.7686,94.8249,265.2893,9.885e-05,1.286e-05,0.0,0 STARLINK-4583,1 53568U 22101AT  23322.49102234  .00001286  00000-0  98850-4 0  9991,2 53568  53.2166 234.7686 0001313  94.8249 265.2893 15.08845348 69996,6917.864,95.437,540.637,538.821,0.0
53568.0,STARLINK-4583,PAYLOAD,2023-11-18 22:54:46,15.08849833,0.0001386,53.2165,232.6867,93.1082,267.0069,0.00020713,3.011e-05,0.0,0 STARLINK-4583,1 53568U 22101AT  23322.95470076  .00003011  00000-0  20713-3 0  9994,2 53568  53.2165 232.6867 0001386  93.1082 267.0069 15.08849833 70068,6917.85,95.437,540.674,538.757,0.0
53568.0,STARLINK-4583,PAYLOAD,2023-11-19 03:40:55,15.08855587,0.0001434,53.2157,231.7944,91.1276,268.988,0.0003875,5.887e-05,0.0,0 STARLINK-4583,1 53568U 22101AT  23323.15341894  .00005887  00000-0  38750-3 0  9995,2 53568  53.2157 231.7944 0001434  91.1276 268.9880 15.08855587 69402,6917.833,95.437,540.69,538.706,0.0
53568.0,STARLINK-4583,PAYLOAD,2023-11-19 21:10:10,15.08844944,0.0002056,53.2175,228.5205,117.9945,242.1255,0.00016437,2.329e-05,0.0,0 STARLINK-4583,1 53568U 22101AT  23323.88206109  .00002329  00000-0  16437-3 0  9990,2 53568  53.2175 228.5205 0002056 117.9945 242.1255 15.08844944 70202,6917.865,95.437,541.153,538.308,0.0
53568.0,STARLINK-4583,PAYLOAD,2023-11-20 03:31:42,15.08847705,0.0001512,53.2169,227.3326,87.6012,272.5154,0.00019076,2.75e-05,0.0,0 STARLINK-4583,1 53568U 22101AT  23324.14702161  .00002750  00000-0  19076-3 0  9999,2 53568  53.2169 227.3326 0001512  87.6012 272.5154 15.08847705 69559,6917.857,95.437,540.768,538.676,0.0
53568.0,STARLINK-4583,PAYLOAD,2023-11-20 22:36:20,15.08847721,0.000172,53.2176,223.7614,95.3112,264.8076,0.00012793,1.749e-05,0.0,0 STARLINK-4583,1 53568U 22101AT  23324.94189941  .00001749  00000-0  12793-3 0  9998,2 53568  53.2176 223.7614 0001720  95.3112 264.8076 15.08847721 70361,6917.857,95.437,540.912,538.532,0.0
53568.0,STARLINK-4583,PAYLOAD,2023-11-21 03:22:29,15.08847137,0.0001801,53.2178,222.8694,95.0892,265.0306,8.6921e-05,1.096e-05,0.0,0 STARLINK-4583,1 53568U 22101AT  23325.14061852  .00001096  00000-0  86921-4 0  9991,2 53568  53.2178 222.8694 0001801  95.0892 265.0306 15.08847137 69709,6917.859,95.437,540.969,538.478,0.0
53568.0,STARLINK-4583,PAYLOAD,2023-11-21 20:51:44,15.08839743,0.0001772,53.217,219.5979,104.2925,255.8264,5.1816e-05,5.37e-06,0.0,0 STARLINK-4583,1 53568U 22101AT  23325.86926245  .00000537  00000-0  51816-4 0  9990,2 53568  53.2170 219.5979 0001772 104.2925 255.8264 15.08839743 70501,6917.881,95.438,540.972,538.52,0.0
53568.0,STARLINK-4583,PAYLOAD,2023-11-22 00:02:30,15.0883931,0.0001738,53.2171,219.0033,102.5864,257.5323,4.0953e-05,3.64e-06,0.0,0 STARLINK-4583,1 53568U 22101AT  23326.00174263  .00000364  00000-0  40953-4 0  9990,2 53568  53.2171 219.0033 0001738 102.5864 257.5323 15.08839310 69832,6917.882,95.438,540.95,538.545,0.0
53568.0,STARLINK-4583,PAYLOAD,2023-11-22 20:42:30,15.08847726,0.0001749,53.2168,215.1369,114.2272,245.8903,0.00010067,1.315e-05,0.0,0 STARLINK-4583,1 53568U 22101AT  23326.86285728  .00001315  00000-0  10067-3 0  9992,2 53568  53.2168 215.1369 0001749 114.2272 245.8903 15.08847726 70658,6917.857,95.437,540.932,538.512,0.0
53568.0,STARLINK-4583,PAYLOAD,2023-11-23 03:04:04,15.08829954,0.0001941,53.2168,213.9472,112.0527,248.0671,0.00072618,0.00011285,0.0,0 STARLINK-4583,1 53568U 22101AT  23327.12782773  .00011285  00000-0  72618-3 0  9991,2 53568  53.2168 213.9472 0001941 112.0527 248.0671 15.08829954 70001,6917.911,95.438,541.119,538.433,0.0
53568.0,STARLINK-4583,PAYLOAD,2023-11-23 22:08:41,15.08833104,0.0002108,53.2161,210.3696,138.1535,221.9618,-4.584e-05,-1.018e-05,0.0,0 STARLINK-4583,1 53568U 22101AT  23327.92270639 -.00001018  00000-0 -45840-4 0  9995,2 53568  53.2161 210.3696 0002108 138.1535 221.9618 15.08833104 70819,6917.901,95.438,541.225,538.308,0.0
53568.0,STARLINK-4583,PAYLOAD,2023-11-24 01:19:28,15.08829558,0.0001505,53.2167,209.7826,96.7921,263.3242,-5.6779e-05,-1.191e-05,0.0,0 STARLINK-4583,1 53568U 22101AT  23328.05518996 -.00001191  00000-0 -56779-4 0  9996,2 53568  53.2167 209.7826 0001505  96.7921 263.3242 15.08829558 70147,6917.912,95.438,540.818,538.736,0.0
53568.0,STARLINK-4583,PAYLOAD,2023-11-24 21:59:29,15.08839116,0.0001436,53.2169,205.9181,94.8887,265.2269,0.0002165,3.159e-05,0.0,0 STARLINK-4583,1 53568U 22101AT  23328.91631227  .00003159  00000-0  21650-3 0  9997,2 53568  53.2169 205.9181 0001436  94.8887 265.2269 15.08839116 70965,6917.883,95.438,540.741,538.755,0.0
53568.0,STARLINK-4583,PAYLOAD,2023-11-25 01:10:15,15.08842975,0.0001533,53.2166,205.3267,111.1157,248.9999,0.00047717,7.315e-05,0.0,0 STARLINK-4583,1 53568U 22101AT  23329.04879266  .00007315  00000-0  47717-3 0  9999,2 53568  53.2166 205.3267 0001533 111.1157 248.9999 15.08842975 70293,6917.871,95.437,540.797,538.676,0.0
53568.0,STARLINK-4583,PAYLOAD,2023-11-25 21:50:15,15.08866346,0.0001282,53.214,201.4654,110.9473,249.1657,0.00095543,0.00014961,0.0,0 STARLINK-4583,1 53568U 22101AT  23329.90990731  .00014961  00000-0  95543-3 0  9990,2 53568  53.2140 201.4654 0001282 110.9473 249.1657 15.08866346 71115,6917.8,95.436,540.552,538.778,0.0
53568.0,STARLINK-4583,PAYLOAD,2023-11-26 01:01:01,15.08883982,0.000135,53.2148,200.8683,111.2813,248.8323,0.0017675,0.00027988,0.0,0 STARLINK-4583,1 53568U 22101AT  23330.04238345  .00027988  00000-0  17675-2 0  9995,2 53568  53.2148 200.8683 0001350 111.2813 248.8323 15.08883982 70442,6917.746,95.435,540.545,538.677,0.0
53568.0,STARLINK-4583,PAYLOAD,2023-11-26 20:05:40,15.08836463,0.0001699,53.2157,197.3027,52.6864,307.4283,-1.2157e-05,-4.82e-06,0.0,0 STARLINK-4583,1 53568U 22101AT  23330.83727253 -.00000482  00000-0 -12157-4 0  9997,2 53568  53.2157 197.3027 0001699  52.6864 307.4283 15.08836463 70566,6917.891,95.438,540.932,538.581,0.0
53568.0,STARLINK-4583,PAYLOAD,2023-11-26 21:41:03,15.08841082,0.0001283,53.2154,197.0026,86.4374,273.6765,5.5594e-05,5.97e-06,0.0,0 STARLINK-4583,1 53568U 22101AT  23330.90351012  .00000597  00000-0  55594-4 0  9998,2 53568  53.2154 197.0026 0001283  86.4374 273.6765 15.08841082 71269,6917.877,95.437,540.63,538.855,0.0
53568.0,STARLINK-4583,PAYLOAD,2023-11-27 21:31:50,15.0884781,0.000135,53.2158,192.5412,72.7058,287.4081,0.00033625,5.069e-05,0.0,0 STARLINK-4583,1 53568U 22101AT  23331.89710939  .00005069  00000-0  33625-3 0  9993,2 53568  53.2158 192.5412 0001350  72.7058 287.4081 15.08847810 71410,6917.857,95.437,540.655,538.788,0.0
53568.0,STARLINK-4583,PAYLOAD,2023-11-28 19:47:14,15.08846565,0.0001439,53.2151,188.377,74.0662,286.0489,0.00014452,2.013e-05,0.0,0 STARLINK-4583,1 53568U 22101AT  23332.82447226  .00002013  00000-0  14452-3 0  9996,2 53568  53.2151 188.3770 0001439  74.0662 286.0489 15.08846565 70868,6917.86,95.437,540.721,538.73,0.0
53568.0,STARLINK-4583,PAYLOAD,2023-11-29 19:38:01,15.08843853,0.000154,53.2156,183.9158,117.1225,242.9925,0.00023536,3.46e-05,0.0,0 STARLINK-4583,1 53568U 22101AT  23333.81807292  .00003460  00000-0  23536-3 0  9999,2 53568  53.2156 183.9158 0001540 117.1225 242.9925 15.08843853 71012,6917.869,95.437,540.799,538.668,0.0
53568.0,STARLINK-4583,PAYLOAD,2023-11-30 19:28:48,15.08838583,0.0001403,53.2152,179.4529,97.1948,262.9203,9.267e-05,1.187e-05,0.0,0 STARLINK-4583,1 53568U 22101AT  23334.81167625  .00001187  00000-0  92670-4 0  9999,2 53568  53.2152 179.4529 0001403  97.1948 262.9203 15.08838583 71168,6917.885,95.438,540.72,538.779,0.0
53568.0,STARLINK-4583,PAYLOAD,2023-12-01 19:19:35,15.08844895,0.0001493,53.2152,174.9982,111.3062,248.8089,0.00016986,2.417e-05,0.0,0 STARLINK-4583,1 53568U 22101AT  23335.80527538  .00002417  00000-0  16986-3 0  9994,2 53568  53.2152 174.9982 0001493 111.3062 248.8089 15.08844895 72008,6917.865,95.437,540.763,538.698,0.0
53568.0,STARLINK-4583,PAYLOAD,2023-12-02 12:48:50,15.08849051,0.000138,53.2148,171.727,104.3593,255.7553,0.00027438,4.083e-05,0.0,0 STARLINK-4583,1 53568U 22101AT  23336.53391283  .00004083  00000-0  27438-3 0  9996,2 53568  53.2148 171.7270 0001380 104.3593 255.7553 15.08849051 72118,6917.853,95.437,540.672,538.763,0.0
